{
    "links": {
        "self": "http://www.neowsapp.com/rest/v1/neo/3943368?api_key=iIulBulltgU6a56xZRHN4H3l9WmuAYTsLGpBGhQ2"
    },
    "id": "3943368",
    "neo_reference_id": "3943368",
    "name": "(2019 YF2)",
    "designation": "2019 YF2",
    "nasa_jpl_url": "http://ssd.jpl.nasa.gov/sbdb.cgi?sstr=3943368",
    "absolute_magnitude_h": 24.7,
    "estimated_diameter": {
        "kilometers": {
            "estimated_diameter_min": 0.0305179233,
            "estimated_diameter_max": 0.0682401509
        },
        "meters": {
            "estimated_diameter_min": 30.5179232594,
            "estimated_diameter_max": 68.2401509401
        },
        "miles": {
            "estimated_diameter_min": 0.0189629525,
            "estimated_diameter_max": 0.0424024508
        },
        "feet": {
            "estimated_diameter_min": 100.1244233463,
            "estimated_diameter_max": 223.8850168104
        }
    },
    "is_potentially_hazardous_asteroid": false,
    "close_approach_data": [
        {
            "close_approach_date": "2019-12-18",
            "close_approach_date_full": "2019-Dec-18 05:55",
            "epoch_date_close_approach": 1576648500000,
            "relative_velocity": {
                "kilometers_per_second": "15.3140553723",
                "kilometers_per_hour": "55130.5993401454",
                "miles_per_hour": "34256.0104622142"
            },
            "miss_distance": {
                "astronomical": "0.0522630751",
                "lunar": "20.3303362139",
                "kilometers": "7818444.714610037",
                "miles": "4858156.2699590306"
            },
            "orbiting_body": "Earth"
        },
        {
            "close_approach_date": "2021-07-26",
            "close_approach_date_full": "2021-Jul-26 05:36",
            "epoch_date_close_approach": 1627277760000,
            "relative_velocity": {
                "kilometers_per_second": "17.6652293293",
                "kilometers_per_hour": "63594.8255854771",
                "miles_per_hour": "39515.3514867094"
            },
            "miss_distance": {
                "astronomical": "0.3324997579",
                "lunar": "129.3424058231",
                "kilometers": "49741255.557355673",
                "miles": "30907782.9903993674"
            },
            "orbiting_body": "Earth"
        },
        {
            "close_approach_date": "2161-08-01",
            "close_approach_date_full": "2161-Aug-01 06:39",
            "epoch_date_close_approach": 6045777540000,
            "relative_velocity": {
                "kilometers_per_second": "11.9712100812",
                "kilometers_per_hour": "43096.3562924593",
                "miles_per_hour": "26778.3998307228"
            },
            "miss_distance": {
                "astronomical": "0.3023363669",
                "lunar": "117.6088467241",
                "kilometers": "45228876.511778503",
                "miles": "28103920.6683012214"
            },
            "orbiting_body": "Earth"
        }
    ],
    "orbital_data": {
        "orbit_id": "2",
        "orbit_determination_date": "2019-12-27 09:08:57",
        "first_observation_date": "2019-12-21",
        "last_observation_date": "2019-12-25",
        "data_arc_in_days": 4,
        "observations_used": 41,
        "orbit_uncertainty": "8",
        "minimum_orbit_intersection": ".0492358",
        "jupiter_tisserand_invariant": "4.320",
        "epoch_osculation": "2458839.5",
        "eccentricity": ".4236754495797902",
        "semi_major_axis": "1.529940131514821",
        "inclination": "20.61054664806434",
        "ascending_node_longitude": "89.76298164076049",
        "orbital_period": "691.2101101980051",
        "perihelion_distance": ".881742058465116",
        "perihelion_argument": "297.4964922640685",
        "aphelion_distance": "2.178138204564526",
        "perihelion_time": "2458791.206951173313",
        "mean_anomaly": "25.15226169453315",
        "mean_motion": ".5208257152038385",
        "equinox": "J2000",
        "orbit_class": {
            "orbit_class_type": "APO",
            "orbit_class_description": "Near-Earth asteroid orbits which cross the Earth’s orbit similar to that of 1862 Apollo",
            "orbit_class_range": "a (semi-major axis) > 1.0 AU; q (perihelion) < 1.017 AU"
        }
    },
    "is_sentry_object": false
}